{
  "type": "FeatureCollection",
  "features": [
    {
      "type": "Feature",
      "properties": {
        "norad_id": 36036,
        "name": "SMOS",
        "group": "resource",
        "lat": -69.73468324640557,
        "lon": -18.32207108142456,
        "alt_km": 767.3079785529508,
        "timestamp": "2025-12-26T12:57:38.923693+00:00",
        "meta_object_name": "SMOS",
        "meta_object_id": "2009-059A",
        "meta_epoch": "2025-12-26T03:27:24.344064",
        "meta_mean_motion": 14.39752905,
        "meta_eccentricity": 0.00010469,
        "meta_inclination": 98.4382,
        "meta_ra_of_asc_node": 184.9941,
        "meta_arg_of_pericenter": 83.4772,
        "meta_mean_anomaly": 276.6536,
        "meta_ephemeris_type": 0,
        "meta_classification_type": "U",
        "meta_norad_cat_id": 36036,
        "meta_element_set_no": 999,
        "meta_rev_at_epoch": 84855,
        "meta_bstar": 0.00013557366,
        "meta_mean_motion_dot": 3.81e-06,
        "meta_mean_motion_ddot": 0,
        "tle_line1": "1 36036U 09059A   25360.14403176  .00000381  00000+0  13557-3 0  9998",
        "tle_line2": "2 36036  98.4382 184.9941 0001046  83.4772 276.6536 14.39752905848552"
      },
      "geometry": {
        "type": "Point",
        "coordinates": [
          -18.32207108142456,
          -69.73468324640557
        ]
      }
    },
    {
      "type": "Feature",
      "properties": {
        "norad_id": 36110,
        "name": "YAOGAN-7",
        "group": "resource",
        "lat": 18.984439760525323,
        "lon": 65.0306104457524,
        "alt_km": 631.9990934718626,
        "timestamp": "2025-12-26T12:57:38.923704+00:00",
        "meta_object_name": "YAOGAN-7",
        "meta_object_id": "2009-069A",
        "meta_epoch": "2025-12-26T02:28:59.852928",
        "meta_mean_motion": 14.77751393,
        "meta_eccentricity": 0.00234872,
        "meta_inclination": 98.0293,
        "meta_ra_of_asc_node": 241.8123,
        "meta_arg_of_pericenter": 235.7484,
        "meta_mean_anomaly": 124.1501,
        "meta_ephemeris_type": 0,
        "meta_classification_type": "U",
        "meta_norad_cat_id": 36110,
        "meta_element_set_no": 999,
        "meta_rev_at_epoch": 86406,
        "meta_bstar": 9.6001727e-05,
        "meta_mean_motion_dot": 6.38e-06,
        "meta_mean_motion_ddot": 0,
        "tle_line1": "1 36110U 09069A   25360.10347052  .00000638  00000+0  96002-4 0  9990",
        "tle_line2": "2 36110  98.0293 241.8123 0023487 235.7484 124.1501 14.77751393864067"
      },
      "geometry": {
        "type": "Point",
        "coordinates": [
          65.0306104457524,
          18.984439760525323
        ]
      }
    },
    {
      "type": "Feature",
      "properties": {
        "norad_id": 36605,
        "name": "TANDEM-X",
        "group": "resource",
        "lat": -58.981124790882554,
        "lon": 18.27984080815659,
        "alt_km": 516.5999581385449,
        "timestamp": "2025-12-26T12:57:38.923714+00:00",
        "meta_object_name": "TANDEM-X",
        "meta_object_id": "2010-030A",
        "meta_epoch": "2025-12-25T13:30:40.340160",
        "meta_mean_motion": 15.19154497,
        "meta_eccentricity": 0.0001775,
        "meta_inclination": 97.4454,
        "meta_ra_of_asc_node": 4.7557,
        "meta_arg_of_pericenter": 93.2666,
        "meta_mean_anomaly": 266.8771,
        "meta_ephemeris_type": 0,
        "meta_classification_type": "U",
        "meta_norad_cat_id": 36605,
        "meta_element_set_no": 999,
        "meta_rev_at_epoch": 86028,
        "meta_bstar": 5.683e-05,
        "meta_mean_motion_dot": 1.127e-05,
        "meta_mean_motion_ddot": 0,
        "tle_line1": "1 36605U 10030A   25359.56296690  .00001127  00000+0  56830-4 0  9997",
        "tle_line2": "2 36605  97.4454   4.7557 0001775  93.2666 266.8771 15.19154497860282"
      },
      "geometry": {
        "type": "Point",
        "coordinates": [
          18.27984080815659,
          -58.981124790882554
        ]
      }
    },
    {
      "type": "Feature",
      "properties": {
        "norad_id": 36795,
        "name": "CARTOSAT-2B",
        "group": "resource",
        "lat": 41.968224311695295,
        "lon": -123.81374186134671,
        "alt_km": 631.665959315983,
        "timestamp": "2025-12-26T12:57:38.923724+00:00",
        "meta_object_name": "CARTOSAT-2B",
        "meta_object_id": "2010-035A",
        "meta_epoch": "2025-12-26T05:50:46.696992",
        "meta_mean_motion": 14.78746301,
        "meta_eccentricity": 0.00124924,
        "meta_inclination": 97.7831,
        "meta_ra_of_asc_node": 48.8334,
        "meta_arg_of_pericenter": 36.7314,
        "meta_mean_anomaly": 323.4752,
        "meta_ephemeris_type": 0,
        "meta_classification_type": "U",
        "meta_norad_cat_id": 36795,
        "meta_element_set_no": 999,
        "meta_rev_at_epoch": 83429,
        "meta_bstar": 0.00018041021,
        "meta_mean_motion_dot": 1.276e-05,
        "meta_mean_motion_ddot": 0,
        "tle_line1": "1 36795U 10035A   25360.24359603  .00001276  00000+0  18041-3 0  9999",
        "tle_line2": "2 36795  97.7831  48.8334 0012492  36.7314 323.4752 14.78746301834292"
      },
      "geometry": {
        "type": "Point",
        "coordinates": [
          -123.81374186134671,
          41.968224311695295
        ]
      }
    },
    {
      "type": "Feature",
      "properties": {
        "norad_id": 36834,
        "name": "YAOGAN-10",
        "group": "resource",
        "lat": 29.29889195484445,
        "lon": -155.26674628740616,
        "alt_km": 612.9625262993186,
        "timestamp": "2025-12-26T12:57:38.923735+00:00",
        "meta_object_name": "YAOGAN-10",
        "meta_object_id": "2010-038A",
        "meta_epoch": "2025-12-26T07:58:39.697824",
        "meta_mean_motion": 14.84659288,
        "meta_eccentricity": 0.00013492,
        "meta_inclination": 97.9135,
        "meta_ra_of_asc_node": 20.0505,
        "meta_arg_of_pericenter": 79.7554,
        "meta_mean_anomaly": 41.4641,
        "meta_ephemeris_type": 0,
        "meta_classification_type": "U",
        "meta_norad_cat_id": 36834,
        "meta_element_set_no": 999,
        "meta_rev_at_epoch": 83155,
        "meta_bstar": 0.00024065794,
        "meta_mean_motion_dot": 1.982e-05,
        "meta_mean_motion_ddot": 0,
        "tle_line1": "1 36834U 10038A   25360.33240391  .00001982  00000+0  24066-3 0  9997",
        "tle_line2": "2 36834  97.9135  20.0505 0001349  79.7554  41.4641 14.84659288831553"
      },
      "geometry": {
        "type": "Point",
        "coordinates": [
          -155.26674628740616,
          29.29889195484445
        ]
      }
    },
    {
      "type": "Feature",
      "properties": {
        "norad_id": 37216,
        "name": "COSMO-SKYMED 4",
        "group": "resource",
        "lat": -49.026245801263535,
        "lon": -169.16769711347095,
        "alt_km": 630.0410630422875,
        "timestamp": "2025-12-26T12:57:38.923745+00:00",
        "meta_object_name": "COSMO-SKYMED 4",
        "meta_object_id": "2010-060A",
        "meta_epoch": "2025-12-26T06:42:12.672576",
        "meta_mean_motion": 14.82162379,
        "meta_eccentricity": 0.00014036,
        "meta_inclination": 97.8807,
        "meta_ra_of_asc_node": 181.3985,
        "meta_arg_of_pericenter": 82.731,
        "meta_mean_anomaly": 277.4063,
        "meta_ephemeris_type": 0,
        "meta_classification_type": "U",
        "meta_norad_cat_id": 37216,
        "meta_element_set_no": 999,
        "meta_rev_at_epoch": 81895,
        "meta_bstar": 0.00012756874,
        "meta_mean_motion_dot": 9.64e-06,
        "meta_mean_motion_ddot": 0,
        "tle_line1": "1 37216U 10060A   25360.27931334  .00000964  00000+0  12757-3 0  9997",
        "tle_line2": "2 37216  97.8807 181.3985 0001403  82.7310 277.4063 14.82162379818957"
      },
      "geometry": {
        "type": "Point",
        "coordinates": [
          -169.16769711347095,
          -49.026245801263535
        ]
      }
    },
    {
      "type": "Feature",
      "properties": {
        "norad_id": 37387,
        "name": "RESOURCESAT-2",
        "group": "resource",
        "lat": 27.355165015356775,
        "lon": -111.38198950742544,
        "alt_km": 822.274962589554,
        "timestamp": "2025-12-26T12:57:38.923756+00:00",
        "meta_object_name": "RESOURCESAT-2",
        "meta_object_id": "2011-015A",
        "meta_epoch": "2025-12-26T05:29:26.505600",
        "meta_mean_motion": 14.21602398,
        "meta_eccentricity": 0.0005761,
        "meta_inclination": 98.7859,
        "meta_ra_of_asc_node": 63.719,
        "meta_arg_of_pericenter": 5.3992,
        "meta_mean_anomaly": 354.7247,
        "meta_ephemeris_type": 0,
        "meta_classification_type": "U",
        "meta_norad_cat_id": 37387,
        "meta_element_set_no": 999,
        "meta_rev_at_epoch": 76160,
        "meta_bstar": 7.9162132e-05,
        "meta_mean_motion_dot": 1.29e-06,
        "meta_mean_motion_ddot": 0,
        "tle_line1": "1 37387U 11015A   25360.22877900  .00000129  00000+0  79162-4 0  9997",
        "tle_line2": "2 37387  98.7859  63.7190 0005761   5.3992 354.7247 14.21602398761607"
      },
      "geometry": {
        "type": "Point",
        "coordinates": [
          -111.38198950742544,
          27.355165015356775
        ]
      }
    }
  ]
}